GOES 3                  
1 10953U 78062A   16071.52354154 -.00000138  00000-0  00000+0 0  9997
2 10953  13.9307 336.2158 0002368 185.0341  93.8628  1.00278685 91320
TDRS 3                  
1 19548U 88091B   16071.36074348 -.00000312  00000-0  00000+0 0  9999
2 19548  14.7724  13.0763 0038883 307.0766 276.7489  1.00267620 87768
SKYNET 4C               
1 20776U 90079A   16070.59291983 -.00000047  00000-0  00000+0 0  9998
2 20776  13.5621  20.8892 0003334 324.8896  35.0961  1.00273622 93339
TDRS 5                  
1 21639U 91054B   16071.17137765  .00000076  00000-0  00000+0 0  9994
2 21639  14.0176  26.4581 0026565 325.4065  71.4135  1.00277517 90108
TDRS 6                  
1 22314U 93003B   16072.46307801 -.00000307  00000-0  00000+0 0  9992
2 22314  13.5090  29.3037 0007104 294.9167 326.8898  1.00280747 84786
INTELSAT 701 (IS-701)   
1 22871U 93066A   16071.39103395 -.00000237  00000-0  00000+0 0  9994
2 22871   3.3158  69.5356 0003437 283.8172 287.3717  1.00271884 81751
NATO 4B                 
1 22921U 93076A   16072.02580589  .00000117  00000-0  00000+0 0  9992
2 22921  11.8978  27.6224 0004213 309.4994 234.8602  1.00271715 81506
INTELSAT 702 (IS-702)   
1 23124U 94034A   16071.62637916  .00000131  00000-0  00000+0 0  9991
2 23124   3.6623  67.7751 0001172 230.2124 130.1118  1.00274594 93786
OPTUS B3                
1 23227U 94055A   16071.61480405 -.00000099  00000-0  00000+0 0  9990
2 23227   6.6561  53.7142 0005012 283.3755 218.1054  1.00272821 78846
ASTRA 1D                
1 23331U 94070A   16072.17577337 -.00000305  00000-0  00000+0 0  9996
2 23331   6.8372  52.8351 0003953 290.2147 203.1618  1.00272842 78573
BRASILSAT B2            
1 23536U 95016A   16072.47386762 -.00000307  00000-0  00000+0 0  9999
2 23536   6.4611  54.6326 0002259 311.0121 272.2768  1.00273047 76722
AMSC 1                  
1 23553U 95019A   16071.93748755 -.00000130  00000-0  00000+0 0  9999
2 23553   9.4630  44.1545 0003880 317.1525  42.8714  1.00273028 76572
TDRS 7                  
1 23613U 95035B   16072.05952404 -.00000211  00000-0  00000+0 0  9996
2 23613  14.7355  20.1466 0023154  16.2705 239.8045  1.00267916 75552
ECHOSTAR 1              
1 23754U 95073A   16072.39825624 -.00000266  00000-0  00000+0 0  9994
2 23754   0.0096 203.8183 0002614 162.2574 230.5912  1.00271392 73853
INMARSAT 3-F1           
1 23839U 96020A   16072.06289272 -.00000013  00000-0  00000+0 0  9998
2 23839   3.1034  69.6845 0006254 279.6692 267.9203  1.00270191 73026
ASTRA 1F                
1 23842U 96021A   16071.11381353  .00000116  00000-0  00000+0 0  9994
2 23842   0.0825 301.1244 0003886  46.1942 267.1381  1.00270284 72722
MSAT M1                 
1 23846U 96022A   16070.97494257 -.00000098  00000-0  00000+0 0  9990
2 23846   7.0272  52.4481 0005986 300.8910  59.1783  1.00272316 72831
PALAPA C2               
1 23864U 96030A   16071.86294241 -.00000259  00000-0  00000+0 0  9998
2 23864   4.7241  61.9780 0000891 282.6207 282.0316  1.00270969 72587
INMARSAT 3-F2           
1 24307U 96053A   16072.27156303 -.00000147  00000-0  00000+0 0  9994
2 24307   1.6920  80.0465 0006687 261.4847 271.0598  1.00271684 71434
AMC-1 (GE-1)            
1 24315U 96054A   16071.88667377  .00000036  00000-0  00000+0 0  9994
2 24315   0.6142  87.4351 0002643 283.2780 349.2727  1.00270706 71435
AFRICASAT-2 (MEASAT-2)  
1 24653U 96063B   16072.12768325 -.00000244  00000-0  00000+0 0  9994
2 24653   6.7548  53.2774 0006931 178.2456 132.6368  1.00273148 70756
EUTELSAT 48A            
1 24665U 96067A   16072.07694323  .00000096  00000-0  00000+0 0  9995
2 24665   5.5732  58.3026 0005405 288.7921 259.0030  1.00272710 71087
INMARSAT 3-F3           
1 24674U 96070A   16071.78464748  .00000015  00000-0  00000+0 0  9993
2 24674   2.5247  74.0515 0005894 279.6451 276.6957  1.00271830 70367
AMC-2 (GE-2)            
1 24713U 97002A   16071.29933682 -.00000249  00000-0  00000+0 0  9997
2 24713   3.4705  68.4432 0005054 280.7629 207.0736  1.00273334 20722
INTELSAT 26 (IS-26)     
1 24732U 97007A   16071.04429363  .00000005  00000-0  00000+0 0  9991
2 24732   6.7227  53.5648 0003588 313.3480 240.3344  1.00272872 69678
GALAXY 25 (G-25)        
1 24812U 97026A   16070.78944548 -.00000185  00000-0  00000+0 0  9998
2 24812   0.0272 260.2978 0003323  84.4841  15.1883  1.00270758 68756
INMARSAT 3-F4           
1 24819U 97027A   16072.47048255 -.00000312  00000-0  00000+0 0  9996
2 24819   4.9533  60.2912 0005097 292.5132 292.8059  1.00274442 68761
ABS-3                   
1 24901U 97042A   16072.17767053 -.00000073  00000-0  00000+0 0  9990
2 24901   4.0356  66.0508 0006837 281.4306 239.1050  1.00354057 67939
INTELSAT 5 (IS-5)       
1 24916U 97046A   16071.29875112 -.00000161  00000-0  00000+0 0  9996
2 24916   2.6416  73.4478 0003720 284.3951  76.0686  1.00272804 68012
METEOSAT-7              
1 24932U 97049B   16071.48422772  .00000035  00000-0  00000+0 0  9997
2 24932  10.0683  41.6025 0001973 294.6930  65.3335  1.00269730 67827
AMC-3 (GE-3)            
1 24936U 97050A   16072.23804190 -.00000297  00000-0  10000-3 0  9991
2 24936   0.0415 307.3425 0001858  10.9764 230.6495  1.00269726 67857
NSS-5                   
1 24957U 97053A   16071.84337478  .00000088  00000-0  00000+0 0  9995
2 24957   2.9440  71.6872 0003413 280.2092 172.0841  1.00272101 67643
ECHOSTAR 3              
1 25004U 97059A   16071.93057916 -.00000306  00000-0  00000+0 0  9995
2 25004   1.2084  82.0956 0001530 303.0641  58.0342  1.00269667 67556
JCSAT-1B                
1 25067U 97075A   16071.79421171 -.00000226  00000-0  00000+0 0  9995
2 25067   4.7407  61.8388 0005126 254.7070 289.2279  1.00271550 66953
ASTRA 1G                
1 25071U 97076A   16071.75267442  .00000002  00000-0  00000+0 0  9997
2 25071   1.3854  79.7294 0003180 267.4666 156.3708  1.00272605 66943
BRASILSAT B3            
1 25152U 98006A   16070.98360203 -.00000192  00000-0  00000+0 0  9995
2 25152   3.1488  70.8835 0003233 283.5686  76.8163  1.00272019 66321
INMARSAT 3-F5           
1 25153U 98006B   16072.22968889 -.00000310  00000-0  00000+0 0  9991
2 25153   1.6609  74.3826 0005302 282.5035 202.0961  1.00271880 66307
NSS-806                 
1 25239U 98014A   16072.22568619 -.00000303  00000-0  00000+0 0  9994
2 25239   0.0568 353.6295 0004507 355.2213 215.1849  1.00271145 66061
CHINASAT 5A (ZX 5A)     
1 25354U 98033A   16071.86294241 -.00000217  00000-0  00000+0 0  9993
2 25354   0.2803  89.5776 0002162 181.0834 356.7239  1.00446289 69646
THOR III                
1 25358U 98035A   16071.71311976 -.00000062  00000-0  00000+0 0  9996
2 25358   4.6212  61.9887 0002606 278.7156  81.4940  1.00271923 65113
INTELSAT 805 (IS-805)   
1 25371U 98037A   16071.61152537 -.00000055  00000-0  00000+0 0  9990
2 25371   0.0473 297.1044 0003600  14.6424 247.0736  1.00271686 64966
ASTRA 2A                
1 25462U 98050A   16071.86437874  .00000125  00000-0  00000+0 0  9990
2 25462   0.0873 252.3588 0001318 194.2678  62.4630  1.00268896 64148
INTELSAT 7 (IS-7)       
1 25473U 98052A   16071.14329087 -.00000075  00000-0  00000+0 0  9996
2 25473   2.2970  76.3000 0002847 101.6108 259.0300  0.98210657 64048
AFRISTAR                
1 25515U 98063A   16071.80251751  .00000103  00000-0  00000+0 0  9991
2 25515   2.4068  70.8182 0004616 281.1190 127.8231  1.00270351 63535
INTELSAT 8 (IS-8)       
1 25522U 98065A   16071.61152537 -.00000054  00000-0  00000+0 0  9998
2 25522   0.0603  88.1663 0003171 282.3473 188.2993  1.00272282 63520
EUTELSAT 115 WEST A     
1 25558U 98070A   16070.99953937 -.00000190  00000-0  00000+0 0  9997
2 25558   2.2385  76.1616 0005045 306.0268  54.5420  1.00273308 63444
JCSAT-4A                
1 25630U 99006A   16072.06066468 -.00000178  00000-0  00000+0 0  9998
2 25630   1.3516  82.3234 0001683 272.8207 278.7499  1.00270253 62400
SKYNET 4E               
1 25639U 99009B   16071.18155933  .00000008  00000-0  00000+0 0  9999
2 25639   9.6766  32.3279 0003027 310.1184 258.1179  1.00270939 62414
ASIASAT 3S              
1 25657U 99013A   16071.86241738 -.00000221  00000-0  00000+0 0  9996
2 25657   1.5705  80.4780 0003428 242.6763 307.7388  1.00270686 62227
NIMIQ 1                 
1 25740U 99027A   16071.52229216 -.00000222  00000-0  00000+0 0  9995
2 25740   0.0846 275.5153 0005448  75.4324 280.1320  1.00272727 61609
ASTRA 1H                
1 25785U 99033A   16072.40193833 -.00000304  00000-0  00000+0 0  9995
2 25785   2.9298  71.8749 0002895 270.7276 284.8588  1.00272836 61199
TELKOM 1                
1 25880U 99042A   16071.59054609 -.00000368  00000-0  00000+0 0  9997
2 25880   0.0147 218.2355 0001197 142.4658 129.5786  1.00270853 60764
ABS-7                   
1 25894U 99046A   16070.83622047 -.00000385  00000-0  00000-0 0  9999
2 25894   0.0179 213.7969 0002142 123.3026 248.9684  1.00271852 59528
GALAXY 27 (G-27)        
1 25922U 99052A   16070.55849582  .00000000  00000-0  10000-3 0  9999
2 25922   2.3078  75.4270 0005227 254.3884 106.1660  1.00271312 60280
ABS-6                   
1 25924U 99053A   16071.08835768 -.00000142  00000-0  00000+0 0  9995
2 25924   0.0202 246.6258 0002641  99.6224  13.7247  1.00273051 60274
TELSTAR 12 (ORION 2)    
1 25949U 99059A   16072.33472551 -.00000144  00000-0  00000+0 0  9996
2 25949   0.0420 304.1891 0002814  44.5944 287.0953  1.00271226 59939
AMC-4 (GE-4)            
1 25954U 99060A   16072.15335352 -.00000297  00000-0  10000-3 0  9995
2 25954   0.0339  88.8770 0001422 324.6957 104.8300  1.00270925 59898
GALAXY 11 (G-11)        
1 26038U 99071A   16071.04504420  .00000128  00000-0  00000+0 0  9999
2 26038   0.0623  97.3978 0007320 242.1780 229.3956  1.00512411 59501
HISPASAT 1C             
1 26071U 00007A   16072.12210067 -.00000236  00000-0  00000+0 0  9999
2 26071   0.0465  47.3947 0002367 303.3541 139.5391  1.00270951 59048
SUPERBIRD-B2            
1 26095U 00012A   16071.79820775 -.00000117  00000-0  00000+0 0  9994
2 26095   0.0377 249.1890 0002023  95.5314 274.4982  1.00270840 58830
